{
  "norad_id": 65145,
  "name": "KUIPER-00107",
  "history": [
    {
      "epoch": "2026-03-28T15:56:08.663424Z",
      "apogee_km": 630.1279179722769,
      "perigee_km": 629.1189406256663,
      "latitude_deg": -4.108749610355153e-05,
      "longitude_deg": -0.9318230557286618,
      "height_km": 630.4106472244371,
      "semi_major_axis_km": 7007.760429298972,
      "eccentricity": 7.199e-05,
      "inclination_deg": 51.9005,
      "raan_deg": 64.1855,
      "arg_perigee_deg": 94.6991,
      "mean_anomaly_deg": 265.4053,
      "mean_motion_rev_day": 14.79905187
    },
    {
      "epoch": "2026-03-29T04:54:06.285888Z",
      "apogee_km": 630.1198398307824,
      "perigee_km": 629.1135264018867,
      "latitude_deg": 3.439202002643137e-05,
      "longitude_deg": 161.65694722357597,
      "height_km": 630.3574713938727,
      "semi_major_axis_km": 7007.753683116334,
      "eccentricity": 7.18e-05,
      "inclination_deg": 51.9006,
      "raan_deg": 61.7968,
      "arg_perigee_deg": 89.419,
      "mean_anomaly_deg": 270.6855,
      "mean_motion_rev_day": 14.79907324
    }
  ]
}